COMMENT,ORIGINATOR,NORAD_CAT_ID,OBJECT_NAME,OBJECT_TYPE,CLASSIFICATION_TYPE,INTLDES,EPOCH,EPOCH_MICROSECONDS,MEAN_MOTION,ECCENTRICITY,INCLINATION,RA_OF_ASC_NODE,ARG_OF_PERICENTER,MEAN_ANOMALY,EPHEMERIS_TYPE,ELEMENT_SET_NO,REV_AT_EPOCH,BSTAR,MEAN_MOTION_DOT,MEAN_MOTION_DDOT,FILE,TLE_LINE0,TLE_LINE1,TLE_LINE2,OBJECT_ID,OBJECT_NUMBER,SEMIMAJOR_AXIS,PERIOD,APOGEE,PERIGEE,DECAYED
"GENERATED VIA SPACETRACK.ORG API","18 SPCS","48894","SPACEBEE-107","PAYLOAD","U","21059R","2023-06-11 04:20:55","200480","15.32564349","0.0005674","97.5961","299.5966","283.908","76.153","0","999","10850","0.0010254","0.00032277","0","3930357","0 SPACEBEE-107","1 48894U 21059R   23162.18119445  .00032277  00000-0  10254-2 0  9992","2 48894  97.5961 299.5966 0005674 283.9080  76.1530 15.32564349108508","2021-059R","48894","6846.302","93.960","472.051","464.282","1"
"GENERATED VIA SPACETRACK.ORG API","18 SPCS","48894","SPACEBEE-107","PAYLOAD","U","21059R","2023-06-11 04:20:55","200480","15.32564349","0.0005674","97.5961","299.5966","283.908","76.153","0","999","10850","0.0010254","0.00032277","0","3930529","0 SPACEBEE-107","1 48894U 21059R   23162.18119445  .00032277  00000-0  10254-2 0  9992","2 48894  97.5961 299.5966 0005674 283.9080  76.1530 15.32564349108508","2021-059R","48894","6846.302","93.960","472.051","464.282","1"
"GENERATED VIA SPACETRACK.ORG API","18 SPCS","48894","SPACEBEE-107","PAYLOAD","U","21059R","2023-06-11 09:02:58","848864","15.3257679","0.0005683","97.596","299.7977","283.3447","76.7161","0","999","10853","0.0010112","0.0003184","0","3930737","0 SPACEBEE-107","1 48894U 21059R   23162.37707001  .00031840  00000-0  10112-2 0  9992","2 48894  97.5960 299.7977 0005683 283.3447  76.7161 15.32576790108534","2021-059R","48894","6846.265","93.959","472.020","464.239","1"
"GENERATED VIA SPACETRACK.ORG API","18 SPCS","48894","SPACEBEE-107","PAYLOAD","U","21059R","2023-06-12 08:33:14","970528","15.32638455","0.0005728","97.5958","300.8028","279.3834","80.676","0","999","10868","0.00099004","0.0003123","0","3931154","0 SPACEBEE-107","1 48894U 21059R   23163.35642327  .00031230  00000-0  99004-3 0  9991","2 48894  97.5958 300.8028 0005728 279.3834  80.6760 15.32638455108689","2021-059R","48894","6846.081","93.956","471.867","464.025","1"
"GENERATED VIA SPACETRACK.ORG API","18 SPCS","48894","SPACEBEE-107","PAYLOAD","U","21059R","2023-06-12 08:33:14","970528","15.32638455","0.0005728","97.5958","300.8028","279.3834","80.676","0","999","10868","0.00099004","0.0003123","0","3931287","0 SPACEBEE-107","1 48894U 21059R   23163.35642327  .00031230  00000-0  99004-3 0  9991","2 48894  97.5958 300.8028 0005728 279.3834  80.6760 15.32638455108689","2021-059R","48894","6846.081","93.956","471.867","464.025","1"
"GENERATED VIA SPACETRACK.ORG API","18 SPCS","48894","SPACEBEE-107","PAYLOAD","U","21059R","2023-06-12 16:23:19","625856","15.32656635","0.0005732","97.5958","301.1378","278.2828","81.7763","0","999","10873","0.00093776","0.00029587","0","3931605","0 SPACEBEE-107","1 48894U 21059R   23163.68286604  .00029587  00000-0  93776-3 0  9991","2 48894  97.5958 301.1378 0005732 278.2828  81.7763 15.32656635108738","2021-059R","48894","6846.027","93.955","471.816","463.968","1"
"GENERATED VIA SPACETRACK.ORG API","18 SPCS","48894","SPACEBEE-107","PAYLOAD","U","21059R","2023-06-13 01:47:24","712512","15.32679513","0.0005795","97.5959","301.5397","277.1407","82.9176","0","999","10879","0.00090086","0.00028436","0","3932134","0 SPACEBEE-107","1 48894U 21059R   23164.07459158  .00028436  00000-0  90086-3 0  9994","2 48894  97.5959 301.5397 0005795 277.1407  82.9176 15.32679513108791","2021-059R","48894","6845.959","93.953","471.791","463.856","1"
"GENERATED VIA SPACETRACK.ORG API","18 SPCS","48894","SPACEBEE-107","PAYLOAD","U","21059R","2023-06-14 01:17:35","114496","15.32743524","0.0005816","97.596","302.5449","273.3338","86.7238","0","999","10894","0.0010183","0.00032234","0","3932500","0 SPACEBEE-107","1 48894U 21059R   23165.05387864  .00032234  00000-0  10183-2 0  9997","2 48894  97.5960 302.5449 0005816 273.3338  86.7238 15.32743524108949","2021-059R","48894","6845.768","93.949","471.615","463.652","1"
"GENERATED VIA SPACETRACK.ORG API","18 SPCS","48894","SPACEBEE-107","PAYLOAD","U","21059R","2023-06-14 02:51:35","688384","15.32746325","0.0005832","97.596","302.6119","273.029","87.0284","0","999","10895","0.00097808","0.00030956","0","3932965","0 SPACEBEE-107","1 48894U 21059R   23165.11916306  .00030956  00000-0  97808-3 0  9992","2 48894  97.5960 302.6119 0005832 273.0290  87.0284 15.32746325108954","2021-059R","48894","6845.760","93.949","471.617","463.632","1"
"GENERATED VIA SPACETRACK.ORG API","18 SPCS","48894","SPACEBEE-107","PAYLOAD","U","21059R","2023-06-14 20:05:41","48160","15.32786954","0.0005874","97.5961","303.3488","269.9499","90.1069","0","999","10906","0.00081631","0.00025838","0","3933215","0 SPACEBEE-107","1 48894U 21059R   23165.83728065  .00025838  00000-0  81631-3 0  9994","2 48894  97.5961 303.3488 0005874 269.9499  90.1069 15.32786954109064","2021-059R","48894","6845.639","93.947","471.525","463.483","1"
"GENERATED VIA SPACETRACK.ORG API","18 SPCS","48894","SPACEBEE-107","PAYLOAD","U","21059R","2023-06-15 02:21:42","623136","15.32800457","0.0005883","97.5961","303.6171","269.2113","90.8454","0","999","10910","0.0008606","0.00027261","0","3933339","0 SPACEBEE-107","1 48894U 21059R   23166.09840999  .00027261  00000-0  86060-3 0  9997","2 48894  97.5961 303.6171 0005883 269.2113  90.8454 15.32800457109107","2021-059R","48894","6845.599","93.946","471.491","463.436","1"
"GENERATED VIA SPACETRACK.ORG API","18 SPCS","48894","SPACEBEE-107","PAYLOAD","U","21059R","2023-06-15 08:37:43","976064","15.32814625","0.0005909","97.5962","303.8851","268.4378","91.6186","0","999","10914","0.00083378","0.00026418","0","3933820","0 SPACEBEE-107","1 48894U 21059R   23166.35953676  .00026418  00000-0  83378-3 0  9995","2 48894  97.5962 303.8851 0005909 268.4378  91.6186 15.32814625109145","2021-059R","48894","6845.556","93.945","471.466","463.376","1"
"GENERATED VIA SPACETRACK.ORG API","18 SPCS","48894","SPACEBEE-107","PAYLOAD","U","21059R","2023-06-15 14:53:45","102624","15.32830594","0.0005929","97.5963","304.1531","267.0129","93.0434","0","999","10918","0.00090521","0.00028711","0","3934071","0 SPACEBEE-107","1 48894U 21059R   23166.62066091  .00028711  00000-0  90521-3 0  9997","2 48894  97.5963 304.1531 0005929 267.0129  93.0434 15.32830594109185","2021-059R","48894","6845.509","93.944","471.433","463.315","1"
"GENERATED VIA SPACETRACK.ORG API","18 SPCS","48894","SPACEBEE-107","PAYLOAD","U","21059R","2023-06-15 22:43:46","129152","15.32856142","0.0005949","97.5964","304.4882","265.8498","94.2064","0","999","10923","0.001076","0.00034196","0","3934180","0 SPACEBEE-107","1 48894U 21059R   23166.94706168  .00034196  00000-0  10760-2 0  9998","2 48894  97.5964 304.4882 0005949 265.8498  94.2064 15.32856142109230","2021-059R","48894","6845.433","93.942","471.370","463.225","1"
"GENERATED VIA SPACETRACK.ORG API","18 SPCS","48894","SPACEBEE-107","PAYLOAD","U","21059R","2023-06-16 08:07:46","821504","15.32887782","0.0005976","97.5965","304.8905","264.9008","95.1551","0","999","10929","0.0012869","0.00040991","0","3934686","0 SPACEBEE-107","1 48894U 21059R   23167.33873636  .00040991  00000-0  12869-2 0  9999","2 48894  97.5965 304.8905 0005976 264.9008  95.1551 15.32887782109299","2021-059R","48894","6845.339","93.940","471.294","463.113","1"
"GENERATED VIA SPACETRACK.ORG API","18 SPCS","48894","SPACEBEE-107","PAYLOAD","U","21059R","2023-06-16 15:57:46","765440","15.32916984","0.0005992","97.5966","305.2254","263.4685","96.5874","0","999","10934","0.001375","0.0004386","0","3934763","0 SPACEBEE-107","1 48894U 21059R   23167.66512460  .00043860  00000-0  13750-2 0  9998","2 48894  97.5966 305.2254 0005992 263.4685  96.5874 15.32916984109341","2021-059R","48894","6845.252","93.939","471.218","463.015","1"
"GENERATED VIA SPACETRACK.ORG API","18 SPCS","48894","SPACEBEE-107","PAYLOAD","U","21059R","2023-06-16 15:57:46","765440","15.32916984","0.0005992","97.5966","305.2254","263.4685","96.5874","0","999","10934","0.001375","0.0004386","0","3934949","0 SPACEBEE-107","1 48894U 21059R   23167.66512460  .00043860  00000-0  13750-2 0  9998","2 48894  97.5966 305.2254 0005992 263.4685  96.5874 15.32916984109341","2021-059R","48894","6845.252","93.939","471.218","463.015","1"
"GENERATED VIA SPACETRACK.ORG API","18 SPCS","48894","SPACEBEE-107","PAYLOAD","U","21059R","2023-06-17 02:55:45","842304","15.32948398","0.0005955","97.5969","305.6943","262.1173","97.9392","0","999","10941","0.0010259","0.00032688","0","3935408","0 SPACEBEE-107","1 48894U 21059R   23168.12205836  .00032688  00000-0  10259-2 0  9993","2 48894  97.5969 305.6943 0005955 262.1173  97.9392 15.32948398109412","2021-059R","48894","6845.158","93.937","471.099","462.947","1"
"GENERATED VIA SPACETRACK.ORG API","18 SPCS","48894","SPACEBEE-107","PAYLOAD","U","21059R","2023-06-17 09:11:44","952288","15.32967872","0.0005964","97.597","305.9624","261.1502","98.9064","0","999","10945","0.00098168","0.00031289","0","3935591","0 SPACEBEE-107","1 48894U 21059R   23168.38315917  .00031289  00000-0  98168-3 0  9995","2 48894  97.5970 305.9624 0005964 261.1502  98.9064 15.32967872109457","2021-059R","48894","6845.100","93.935","471.048","462.883","1"
"GENERATED VIA SPACETRACK.ORG API","18 SPCS","48894","SPACEBEE-107","PAYLOAD","U","21059R","2023-06-17 15:27:43","816896","15.3298415","0.0005958","97.5971","306.2305","259.9439","100.1131","0","999","10949","0.0009414","0.00030012","0","3935891","0 SPACEBEE-107","1 48894U 21059R   23168.64425714  .00030012  00000-0  94140-3 0  9990","2 48894  97.5971 306.2305 0005958 259.9439 100.1131 15.32984150109498","2021-059R","48894","6845.052","93.934","470.995","462.838","1"
